NAVSTAR 77 (USA 289)    
1 43873U 18109A   24233.14963631  .00000020  00000+0  00000+0 0  9991
2 43873  55.3189 118.5003 0030066 193.0043 339.1989  2.00558639 41714
